{
  "features": [
    {
      "geometry": {
        "coordinates": [
          [
            [
              -180.0,
              -60.0
            ],
            [
              -90.0,
              -60.0
            ],
            [
              0.0,
              -60.0
            ],
            [
              90.0,
              -60.0
            ],
            [
              180.0,
              -60.0
            ],
            [
              180.0,
              -90.0
            ],
            [
              -180.0,
              -90.0
            ],
            [
              -180.0,
              -60.0
            ]
          ]
        ],
        "type": "Polygon"
      },
      "properties": {
        "act": "act_i",
        "confidence": "low",
        "evidenceClass": "conjectured",
        "expeditionId": null,
        "featureType": "conjectured_landmass",
        "geometryProvenance": "editorial_generalisation",
        "historicName": "Terra Australis Incognita",
        "id": "ant-ftr-terra-australis-conjectured",
        "kind": "feature",
        "laterStatus": "disproved",
        "notes": "A latitude envelope standing for the region within which the conjectured continent was drawn. It is deliberately not a coastline: no map in the register has been examined, so there is nothing to digitise, and drawing a plausible outline would manufacture the very false precision the essay is about.",
        "reviewState": "raw",
        "sourceId": "ant-src-hiatt-terra-incognita",
        "sourceLocator": "pending",
        "title": "Terra Australis, schematic envelope (not a digitised coastline)",
        "validFrom": 1531,
        "validTo": 1775
      },
      "type": "Feature"
    }
  ],
  "type": "FeatureCollection"
}
