{
  "features": [
    {
      "geometry": {
        "coordinates": [
          -106.9,
          -71.17
        ],
        "type": "Point"
      },
      "properties": {
        "act": "act_iv",
        "confidence": "medium",
        "evidenceClass": "direct_observation",
        "expeditionId": "ant-exp-cook-second",
        "featureType": "observed_limit",
        "geometryProvenance": "transcribed_from_coordinates",
        "id": "ant-ftr-cook-southern-limit",
        "kind": "feature",
        "laterStatus": "confirmed",
        "notes": "The furthest south of the second voyage, commonly given as 71 degrees 10 minutes south, 106 degrees 54 minutes west. Recorded from the general literature and not yet checked against Beaglehole, which is why it stays raw.",
        "reviewState": "raw",
        "sourceId": "ant-src-beaglehole-journals-ii",
        "sourceLocator": "pending",
        "title": "Southern limit reached by Resolution, 30 January 1774",
        "validFrom": 1774,
        "validTo": 1774
      },
      "type": "Feature"
    },
    {
      "geometry": {
        "coordinates": [
          -2.23,
          -69.35
        ],
        "type": "Point"
      },
      "properties": {
        "act": "act_v",
        "confidence": "contested",
        "datePrecision": "day",
        "evidenceClass": "reported_not_observed",
        "expeditionId": "ant-exp-bellingshausen",
        "geometryProvenance": "transcribed_from_coordinates",
        "id": "ant-obs-1820-sighting",
        "kind": "observation",
        "laterStatus": "unresolved",
        "notes": "Filed as reported_not_observed rather than direct_observation on purpose: what was seen, and whether it counts as a sighting of the mainland, is the disputed question the terminology table exists to keep open. The position is approximate and taken from the general literature.",
        "observationKind": "sighting",
        "observedDate": "1820-01-27",
        "observer": "Fabian Gottlieb von Bellingshausen",
        "reviewState": "raw",
        "sourceId": "ant-src-debenham-bellingshausen",
        "sourceLocator": "pending",
        "title": "Reported sighting of an ice front, Vostok and Mirny",
        "validFrom": 1820,
        "validTo": 1820
      },
      "type": "Feature"
    },
    {
      "geometry": {
        "coordinates": [
          163.0,
          -66.9
        ],
        "type": "Point"
      },
      "properties": {
        "act": "act_v",
        "confidence": "low",
        "datePrecision": "month",
        "evidenceClass": "reported_not_observed",
        "expeditionId": "ant-exp-balleny",
        "geometryProvenance": "transcribed_from_coordinates",
        "id": "ant-obs-balleny-islands",
        "kind": "observation",
        "laterStatus": "confirmed",
        "notes": "Named on both cumulative ice charts for the 1839 season. Recorded from the general literature during compilation and not yet checked against an edition, so the row stays raw.",
        "observationKind": "sighting",
        "observedDate": "1839-02",
        "observer": "John Balleny",
        "reviewState": "raw",
        "sourceId": "ant-src-headland-chronology",
        "sourceLocator": "pending",
        "title": "Islands sighted, later named the Balleny Islands",
        "validFrom": 1839,
        "validTo": 1839
      },
      "type": "Feature"
    },
    {
      "geometry": {
        "coordinates": [
          50.0,
          -66.5
        ],
        "type": "Point"
      },
      "properties": {
        "act": "act_v",
        "confidence": "low",
        "datePrecision": "month",
        "evidenceClass": "reported_not_observed",
        "expeditionId": "ant-exp-biscoe",
        "geometryProvenance": "transcribed_from_coordinates",
        "id": "ant-obs-biscoe-enderby",
        "kind": "observation",
        "laterStatus": "unresolved",
        "notes": "A commercial voyage producing coast. Position approximate to the region rather than to a landfall. Recorded from the general literature during compilation and not yet checked against an edition, so the row stays raw.",
        "observationKind": "sighting",
        "observedDate": "1831-02",
        "observer": "John Biscoe",
        "reviewState": "raw",
        "sourceId": "ant-src-headland-chronology",
        "sourceLocator": "pending",
        "title": "Land sighted and named Enderby Land",
        "validFrom": 1831,
        "validTo": 1831
      },
      "type": "Feature"
    },
    {
      "geometry": {
        "coordinates": [
          -60.0,
          -63.5
        ],
        "type": "Point"
      },
      "properties": {
        "act": "act_v",
        "confidence": "contested",
        "datePrecision": "day",
        "evidenceClass": "reported_not_observed",
        "expeditionId": "ant-exp-bransfield",
        "geometryProvenance": "transcribed_from_coordinates",
        "id": "ant-obs-bransfield-trinity",
        "kind": "observation",
        "laterStatus": "unresolved",
        "notes": "One of the three 1820 claims. Position approximate. Filed as a report rather than an observation because what was seen, and whether it was the mainland or an island of the peninsula group, is the argument. Recorded from the general literature during compilation and not yet checked against an edition, so the row stays raw.",
        "observationKind": "sighting",
        "observedDate": "1820-01-30",
        "observer": "Edward Bransfield",
        "reviewState": "raw",
        "sourceId": "ant-src-gurney-below-convergence",
        "sourceLocator": "pending",
        "title": "Land sighted from Williams, named Trinity Land",
        "validFrom": 1820,
        "validTo": 1820
      },
      "type": "Feature"
    },
    {
      "geometry": {
        "coordinates": [
          -106.9,
          -71.17
        ],
        "type": "Point"
      },
      "properties": {
        "act": "act_iv",
        "confidence": "medium",
        "datePrecision": "day",
        "evidenceClass": "instrumental_fix",
        "expeditionId": "ant-exp-cook-second",
        "geometryProvenance": "transcribed_from_coordinates",
        "id": "ant-obs-cook-farthest-south",
        "kind": "observation",
        "laterStatus": "confirmed",
        "notes": "Recorded from the general literature. The figure is stable across accounts but has not been read in the edition, so it stays raw.",
        "observationKind": "position",
        "observedDate": "1774-01-30",
        "observer": "James Cook",
        "reviewState": "raw",
        "sourceId": "ant-src-beaglehole-journals-ii",
        "sourceLocator": "pending",
        "title": "Farthest south, Resolution",
        "validFrom": 1774,
        "validTo": 1774
      },
      "type": "Feature"
    },
    {
      "geometry": {
        "coordinates": [
          140.0,
          -66.6
        ],
        "type": "Point"
      },
      "properties": {
        "act": "act_v",
        "confidence": "low",
        "datePrecision": "day",
        "evidenceClass": "reported_not_observed",
        "expeditionId": "ant-exp-durville",
        "geometryProvenance": "transcribed_from_coordinates",
        "id": "ant-obs-durville-adelie",
        "kind": "observation",
        "laterStatus": "confirmed",
        "notes": "One of three expeditions on overlapping coast in the same weeks. Recorded from the general literature during compilation and not yet checked against an edition, so the row stays raw.",
        "observationKind": "sighting",
        "observedDate": "1840-01-20",
        "observer": "Jules Sebastien Cesar Dumont d'Urville",
        "reviewState": "raw",
        "sourceId": "ant-src-durville-voyage",
        "sourceLocator": "pending",
        "title": "Coast sighted and named Terre Adelie",
        "validFrom": 1840,
        "validTo": 1840
      },
      "type": "Feature"
    },
    {
      "geometry": {
        "coordinates": [
          -54.87,
          -61.1
        ],
        "type": "Point"
      },
      "properties": {
        "act": "act_viii",
        "confidence": "low",
        "datePrecision": "day",
        "evidenceClass": "instrumental_fix",
        "expeditionId": "ant-exp-ite",
        "geometryProvenance": "transcribed_from_coordinates",
        "id": "ant-obs-elephant-island",
        "kind": "observation",
        "laterStatus": "confirmed",
        "notes": "Approximate. Recorded from the general literature during compilation and not yet checked against an edition, so the row stays raw.",
        "observationKind": "position",
        "observedDate": "1916-04-15",
        "observer": "Frank Arthur Worsley",
        "reviewState": "raw",
        "sourceId": "ant-src-worsley-boat-journey",
        "sourceLocator": "pending",
        "title": "The boats reach Elephant Island",
        "validFrom": 1916,
        "validTo": 1916
      },
      "type": "Feature"
    },
    {
      "geometry": {
        "coordinates": [
          -51.5,
          -69.08
        ],
        "type": "Point"
      },
      "properties": {
        "act": "act_viii",
        "confidence": "low",
        "datePrecision": "day",
        "evidenceClass": "dead_reckoning",
        "expeditionId": "ant-exp-ite",
        "geometryProvenance": "transcribed_from_coordinates",
        "id": "ant-obs-endurance-abandoned",
        "kind": "observation",
        "laterStatus": "unresolved",
        "notes": "Approximate, and separate from the sinking a month later. Recorded from the general literature during compilation and not yet checked against an edition, so the row stays raw.",
        "observationKind": "position",
        "observedDate": "1915-10-27",
        "observer": "Frank Arthur Worsley",
        "reviewState": "raw",
        "sourceId": "ant-src-shackleton-south-1919",
        "sourceLocator": "pending",
        "title": "Endurance abandoned",
        "validFrom": 1915,
        "validTo": 1915
      },
      "type": "Feature"
    },
    {
      "geometry": {
        "coordinates": [
          -31.5,
          -76.57
        ],
        "type": "Point"
      },
      "properties": {
        "act": "act_viii",
        "confidence": "low",
        "datePrecision": "day",
        "evidenceClass": "dead_reckoning",
        "expeditionId": "ant-exp-ite",
        "geometryProvenance": "editorial_interpolation",
        "id": "ant-obs-endurance-beset",
        "kind": "observation",
        "laterStatus": "unresolved",
        "notes": "Approximate, recorded from the general literature and unverified. Whether the position was fixed or reckoned is unknown until the navigational records are found.",
        "observationKind": "position",
        "observedDate": "1915-01-19",
        "observer": "Frank Arthur Worsley",
        "reviewState": "raw",
        "sourceId": "ant-src-shackleton-south-1919",
        "sourceLocator": "pending",
        "title": "Endurance beset in the pack",
        "validFrom": 1915,
        "validTo": 1915
      },
      "type": "Feature"
    },
    {
      "geometry": {
        "coordinates": [
          -36.5,
          -54.28
        ],
        "type": "Point"
      },
      "properties": {
        "act": "act_viii",
        "confidence": "low",
        "datePrecision": "day",
        "evidenceClass": "dead_reckoning",
        "expeditionId": "ant-exp-ite",
        "geometryProvenance": "transcribed_from_coordinates",
        "id": "ant-obs-endurance-departs-sg",
        "kind": "observation",
        "laterStatus": "not_applicable",
        "notes": "The last position before the pack. Recorded from the general literature during compilation and not yet checked against an edition, so the row stays raw.",
        "observationKind": "position",
        "observedDate": "1914-12-05",
        "observer": "Frank Arthur Worsley",
        "reviewState": "raw",
        "sourceId": "ant-src-shackleton-south-1919",
        "sourceLocator": "pending",
        "title": "Endurance leaves South Georgia",
        "validFrom": 1914,
        "validTo": 1914
      },
      "type": "Feature"
    },
    {
      "geometry": {
        "coordinates": [
          -52.4417,
          -68.6583
        ],
        "type": "Point"
      },
      "properties": {
        "act": "act_viii",
        "confidence": "low",
        "datePrecision": "day",
        "evidenceClass": "instrumental_fix",
        "expeditionId": "ant-exp-ite",
        "geometryProvenance": "transcribed_from_coordinates",
        "id": "ant-obs-endurance-fix",
        "kind": "observation",
        "laterStatus": "unresolved",
        "notes": "The figure usually given as 68 degrees 39 minutes 30 seconds south, 52 degrees 26 minutes 30 seconds west. It is recorded at the precision the literature reports and at low confidence, because the whole point of the Coda is that this coordinate is a calculated result with an error nobody here has yet established.",
        "observationKind": "reported_sinking_position",
        "observedDate": "1915-11-21",
        "observer": "Frank Arthur Worsley",
        "reviewState": "raw",
        "sourceId": "ant-src-worsley-endurance-1931",
        "sourceLocator": "pending",
        "title": "Position recorded for the loss of Endurance",
        "validFrom": 1915,
        "validTo": 1915
      },
      "type": "Feature"
    },
    {
      "geometry": {
        "coordinates": [
          -54.87,
          -61.1
        ],
        "type": "Point"
      },
      "properties": {
        "act": "act_viii",
        "confidence": "low",
        "datePrecision": "day",
        "evidenceClass": "instrumental_fix",
        "expeditionId": "ant-exp-ite",
        "geometryProvenance": "transcribed_from_coordinates",
        "id": "ant-obs-james-caird-departs",
        "kind": "observation",
        "laterStatus": "not_applicable",
        "notes": "The start of the second navigation problem, and the one Worsley wrote a whole book about. Recorded from the general literature during compilation and not yet checked against an edition, so the row stays raw.",
        "observationKind": "position",
        "observedDate": "1916-04-24",
        "observer": "Frank Arthur Worsley",
        "reviewState": "raw",
        "sourceId": "ant-src-worsley-boat-journey",
        "sourceLocator": "pending",
        "title": "James Caird leaves Elephant Island",
        "validFrom": 1916,
        "validTo": 1916
      },
      "type": "Feature"
    },
    {
      "geometry": {
        "coordinates": [
          -37.25,
          -54.16
        ],
        "type": "Point"
      },
      "properties": {
        "act": "act_viii",
        "confidence": "low",
        "datePrecision": "day",
        "evidenceClass": "instrumental_fix",
        "expeditionId": "ant-exp-ite",
        "geometryProvenance": "transcribed_from_coordinates",
        "id": "ant-obs-king-haakon-bay",
        "kind": "observation",
        "laterStatus": "confirmed",
        "notes": "Approximate. The accuracy of the passage that ended here is the claim the ledger refuses to quantify without a technical source. Recorded from the general literature during compilation and not yet checked against an edition, so the row stays raw.",
        "observationKind": "landfall",
        "observedDate": "1916-05-10",
        "observer": "Frank Arthur Worsley",
        "reviewState": "raw",
        "sourceId": "ant-src-worsley-boat-journey",
        "sourceLocator": "pending",
        "title": "The James Caird makes South Georgia",
        "validFrom": 1916,
        "validTo": 1916
      },
      "type": "Feature"
    },
    {
      "geometry": {
        "coordinates": [
          -60.5,
          -63.2
        ],
        "type": "Point"
      },
      "properties": {
        "act": "act_v",
        "confidence": "contested",
        "datePrecision": "month",
        "evidenceClass": "reported_not_observed",
        "expeditionId": "ant-exp-palmer",
        "geometryProvenance": "transcribed_from_coordinates",
        "id": "ant-obs-palmer-hero",
        "kind": "observation",
        "laterStatus": "unresolved",
        "notes": "The American claim, resting on a sealing log. Recorded to the month because the day is not established here. Recorded from the general literature during compilation and not yet checked against an edition, so the row stays raw.",
        "observationKind": "sighting",
        "observedDate": "1820-11",
        "observer": "Nathaniel Palmer",
        "reviewState": "raw",
        "sourceId": "ant-src-gurney-below-convergence",
        "sourceLocator": "pending",
        "title": "Land sighted from Hero",
        "validFrom": 1820,
        "validTo": 1820
      },
      "type": "Feature"
    },
    {
      "geometry": {
        "coordinates": [
          -161.0,
          -78.16
        ],
        "type": "Point"
      },
      "properties": {
        "act": "act_v",
        "confidence": "low",
        "datePrecision": "month",
        "evidenceClass": "instrumental_fix",
        "expeditionId": "ant-exp-ross",
        "geometryProvenance": "transcribed_from_coordinates",
        "id": "ant-obs-ross-farthest-south",
        "kind": "observation",
        "laterStatus": "confirmed",
        "notes": "Approximate. Recorded from the general literature during compilation and not yet checked against an edition, so the row stays raw.",
        "observationKind": "position",
        "observedDate": "1842-02",
        "observer": "James Clark Ross",
        "reviewState": "raw",
        "sourceId": "ant-src-ross-voyage-1847",
        "sourceLocator": "pending",
        "title": "Farthest south reached by Erebus and Terror",
        "validFrom": 1842,
        "validTo": 1842
      },
      "type": "Feature"
    },
    {
      "geometry": {
        "coordinates": [
          170.0,
          -71.5
        ],
        "type": "Point"
      },
      "properties": {
        "act": "act_v",
        "confidence": "medium",
        "datePrecision": "month",
        "evidenceClass": "direct_observation",
        "expeditionId": "ant-exp-ross",
        "geometryProvenance": "transcribed_from_coordinates",
        "id": "ant-obs-ross-victoria-land",
        "kind": "observation",
        "laterStatus": "confirmed",
        "notes": "The first record in the dataset filed as a direct observation of coast, because Ross's survey followed it rather than passing once. Recorded from the general literature during compilation and not yet checked against an edition, so the row stays raw.",
        "observationKind": "sighting",
        "observedDate": "1841-01",
        "observer": "James Clark Ross",
        "reviewState": "raw",
        "sourceId": "ant-src-ross-voyage-1847",
        "sourceLocator": "pending",
        "title": "Coast sighted and named Victoria Land",
        "validFrom": 1841,
        "validTo": 1841
      },
      "type": "Feature"
    },
    {
      "geometry": {
        "coordinates": [
          -34.28,
          -74.25
        ],
        "type": "Point"
      },
      "properties": {
        "act": "act_v",
        "confidence": "low",
        "datePrecision": "day",
        "evidenceClass": "instrumental_fix",
        "expeditionId": "ant-exp-weddell",
        "geometryProvenance": "transcribed_from_coordinates",
        "id": "ant-obs-weddell-farthest-south",
        "kind": "observation",
        "laterStatus": "confirmed",
        "notes": "An exceptional open-water penetration in an exceptional ice year, which later voyages could not repeat. The date and position are approximate. Recorded from the general literature during compilation and not yet checked against an edition, so the row stays raw.",
        "observationKind": "position",
        "observedDate": "1823-02-20",
        "observer": "James Weddell",
        "reviewState": "raw",
        "sourceId": "ant-src-weddell-voyage-1825",
        "sourceLocator": "pending",
        "title": "Farthest south reached by Jane",
        "validFrom": 1823,
        "validTo": 1823
      },
      "type": "Feature"
    },
    {
      "geometry": {
        "coordinates": [
          150.0,
          -66.5
        ],
        "type": "Point"
      },
      "properties": {
        "act": "act_v",
        "confidence": "contested",
        "datePrecision": "month",
        "evidenceClass": "reported_not_observed",
        "expeditionId": "ant-exp-wilkes",
        "geometryProvenance": "transcribed_from_coordinates",
        "id": "ant-obs-wilkes-january-1840",
        "kind": "observation",
        "laterStatus": "modified",
        "notes": "Recorded to the month deliberately: the exact days are part of the priority dispute with d'Urville, and settling them here would settle the dispute by data entry. Recorded from the general literature during compilation and not yet checked against an edition, so the row stays raw.",
        "observationKind": "claimed_land",
        "observedDate": "1840-01",
        "observer": "Charles Wilkes",
        "reviewState": "raw",
        "sourceId": "ant-src-wilkes-narrative-1844",
        "sourceLocator": "pending",
        "title": "Land reported from the United States squadron",
        "validFrom": 1840,
        "validTo": 1840
      },
      "type": "Feature"
    }
  ],
  "type": "FeatureCollection"
}
