{
  "features": [
    {
      "geometry": {
        "coordinates": [
          10.6866,
          53.8655
        ],
        "type": "Point"
      },
      "properties": {
        "certainty": "high",
        "coordinates": [
          10.6866,
          53.8655
        ],
        "essay_anchor": "city-is-unit",
        "id": "hse-place-lubeck-leading-1356",
        "name": "Lübeck",
        "name_historic": "Lubeca",
        "name_modern": "Lübeck",
        "notes": "Publication phase uses the regular Hansetag-to-conventional-terminus window; it is not a membership interval.",
        "parent_polity": "Holy Roman Empire",
        "participation_class": "documented_collective_participation",
        "place_id": "lubeck",
        "region": "Wendish-Baltic",
        "role": "leading_city",
        "source": "hse-src-marczinek-data-2025",
        "valid_from": 1356,
        "valid_to": 1669
      },
      "type": "Feature"
    },
    {
      "geometry": {
        "coordinates": [
          9.9937,
          53.5503
        ],
        "type": "Point"
      },
      "properties": {
        "certainty": "high",
        "coordinates": [
          9.9937,
          53.5503
        ],
        "essay_anchor": "city-is-unit",
        "id": "hse-place-hamburg-active-1356",
        "name": "Hamburg",
        "name_historic": "Hamburg",
        "name_modern": "Hamburg",
        "notes": "Documented city in the research dataset; bounds are the project's analytical window.",
        "parent_polity": "Holy Roman Empire",
        "participation_class": "documented_collective_participation",
        "place_id": "hamburg",
        "region": "Lower Elbe",
        "role": "active_city",
        "source": "hse-src-marczinek-data-2025",
        "valid_from": 1356,
        "valid_to": 1669
      },
      "type": "Feature"
    },
    {
      "geometry": {
        "coordinates": [
          8.8017,
          53.0793
        ],
        "type": "Point"
      },
      "properties": {
        "certainty": "high",
        "coordinates": [
          8.8017,
          53.0793
        ],
        "essay_anchor": "city-is-unit",
        "id": "hse-place-bremen-active-1356",
        "name": "Bremen",
        "name_historic": "Bremen",
        "name_modern": "Bremen",
        "notes": "Documented city in the research dataset; bounds are the project's analytical window.",
        "parent_polity": "Holy Roman Empire",
        "participation_class": "documented_collective_participation",
        "place_id": "bremen",
        "region": "Lower Weser",
        "role": "active_city",
        "source": "hse-src-marczinek-data-2025",
        "valid_from": 1356,
        "valid_to": 1669
      },
      "type": "Feature"
    },
    {
      "geometry": {
        "coordinates": [
          6.9603,
          50.9375
        ],
        "type": "Point"
      },
      "properties": {
        "certainty": "high",
        "coordinates": [
          6.9603,
          50.9375
        ],
        "essay_anchor": "city-is-unit",
        "id": "hse-place-cologne-leading-1356",
        "name": "Cologne",
        "name_historic": "Cöln",
        "name_modern": "Köln",
        "notes": "Historic and modern names retain the essay's English display label and German search forms.",
        "parent_polity": "Holy Roman Empire",
        "participation_class": "documented_collective_participation",
        "place_id": "cologne",
        "region": "Rhine",
        "role": "leading_city",
        "source": "hse-src-marczinek-data-2025",
        "valid_from": 1356,
        "valid_to": 1669
      },
      "type": "Feature"
    },
    {
      "geometry": {
        "coordinates": [
          18.2948,
          57.6348
        ],
        "type": "Point"
      },
      "properties": {
        "certainty": "high",
        "coordinates": [
          18.2948,
          57.6348
        ],
        "essay_anchor": "merchants-before-league",
        "id": "hse-place-visby-market-1356",
        "name": "Visby",
        "name_historic": "Wisby",
        "name_modern": "Visby",
        "notes": "End date is a conservative publication bound for Visby's selected Hanseatic phase rather than a constitutional exit date.",
        "parent_polity": "Swedish-Danish Baltic",
        "participation_class": "documented_collective_participation",
        "place_id": "visby",
        "region": "Gotland",
        "role": "market",
        "source": "hse-src-marczinek-data-2025",
        "valid_from": 1356,
        "valid_to": 1525
      },
      "type": "Feature"
    },
    {
      "geometry": {
        "coordinates": [
          18.6466,
          54.352
        ],
        "type": "Point"
      },
      "properties": {
        "certainty": "high",
        "coordinates": [
          18.6466,
          54.352
        ],
        "essay_anchor": "goods-draw-different-leagues",
        "id": "hse-place-gdansk-active-1356",
        "name": "Gdańsk",
        "name_historic": "Danzig",
        "name_modern": "Gdańsk",
        "notes": "Parent polity is summarized across a changing political history; the phase does not imply continuous formal membership.",
        "parent_polity": "Teutonic and Royal Prussia",
        "participation_class": "documented_collective_participation",
        "place_id": "gdansk",
        "region": "Prussia",
        "role": "active_city",
        "source": "hse-src-marczinek-data-2025",
        "valid_from": 1356,
        "valid_to": 1669
      },
      "type": "Feature"
    },
    {
      "geometry": {
        "coordinates": [
          24.1052,
          56.9496
        ],
        "type": "Point"
      },
      "properties": {
        "certainty": "high",
        "coordinates": [
          24.1052,
          56.9496
        ],
        "essay_anchor": "city-is-unit",
        "id": "hse-place-riga-active-1356",
        "name": "Riga",
        "name_historic": "Riga",
        "name_modern": "Rīga",
        "notes": "Parent polity is a broad phase label rather than a claim of unchanged sovereignty.",
        "parent_polity": "Livonian and Polish-Swedish rule",
        "participation_class": "documented_collective_participation",
        "place_id": "riga",
        "region": "Livonia",
        "role": "active_city",
        "source": "hse-src-marczinek-data-2025",
        "valid_from": 1356,
        "valid_to": 1669
      },
      "type": "Feature"
    },
    {
      "geometry": {
        "coordinates": [
          12.0991,
          54.0924
        ],
        "type": "Point"
      },
      "properties": {
        "certainty": "high",
        "coordinates": [
          12.0991,
          54.0924
        ],
        "essay_anchor": "city-is-unit",
        "id": "hse-place-rostock-active-1356",
        "name": "Rostock",
        "name_historic": "Rostock",
        "name_modern": "Rostock",
        "notes": "Documented city in the research dataset; bounds are the project's analytical window.",
        "parent_polity": "Holy Roman Empire",
        "participation_class": "documented_collective_participation",
        "place_id": "rostock",
        "region": "Wendish-Baltic",
        "role": "active_city",
        "source": "hse-src-marczinek-data-2025",
        "valid_from": 1356,
        "valid_to": 1669
      },
      "type": "Feature"
    },
    {
      "geometry": {
        "coordinates": [
          11.451,
          53.891
        ],
        "type": "Point"
      },
      "properties": {
        "certainty": "high",
        "coordinates": [
          11.451,
          53.891
        ],
        "essay_anchor": "city-is-unit",
        "id": "hse-place-wismar-active-1356",
        "name": "Wismar",
        "name_historic": "Wismar",
        "name_modern": "Wismar",
        "notes": "Documented city in the research dataset; bounds are the project's analytical window.",
        "parent_polity": "Holy Roman Empire",
        "participation_class": "documented_collective_participation",
        "place_id": "wismar",
        "region": "Wendish-Baltic",
        "role": "active_city",
        "source": "hse-src-marczinek-data-2025",
        "valid_from": 1356,
        "valid_to": 1669
      },
      "type": "Feature"
    },
    {
      "geometry": {
        "coordinates": [
          13.0818,
          54.3091
        ],
        "type": "Point"
      },
      "properties": {
        "certainty": "high",
        "coordinates": [
          13.0818,
          54.3091
        ],
        "essay_anchor": "power-without-sovereignty",
        "id": "hse-place-stralsund-active-1356",
        "name": "Stralsund",
        "name_historic": "Stralsund",
        "name_modern": "Stralsund",
        "notes": "The 1370 treaty is modelled separately in events.csv.",
        "parent_polity": "Holy Roman Empire",
        "participation_class": "documented_collective_participation",
        "place_id": "stralsund",
        "region": "Pomerania",
        "role": "active_city",
        "source": "hse-src-marczinek-data-2025",
        "valid_from": 1356,
        "valid_to": 1669
      },
      "type": "Feature"
    },
    {
      "geometry": {
        "coordinates": [
          13.3815,
          54.0958
        ],
        "type": "Point"
      },
      "properties": {
        "certainty": "medium",
        "coordinates": [
          13.3815,
          54.0958
        ],
        "essay_anchor": "city-is-unit",
        "id": "hse-place-greifswald-active-1356",
        "name": "Greifswald",
        "name_historic": "Greifswald",
        "name_modern": "Greifswald",
        "notes": "Documented city flag supports inclusion; the phase bounds are analytical.",
        "parent_polity": "Holy Roman Empire",
        "participation_class": "documented_collective_participation",
        "place_id": "greifswald",
        "region": "Pomerania",
        "role": "active_city",
        "source": "hse-src-marczinek-data-2025",
        "valid_from": 1356,
        "valid_to": 1669
      },
      "type": "Feature"
    },
    {
      "geometry": {
        "coordinates": [
          10.4115,
          53.2464
        ],
        "type": "Point"
      },
      "properties": {
        "certainty": "high",
        "coordinates": [
          10.4115,
          53.2464
        ],
        "essay_anchor": "goods-draw-different-leagues",
        "id": "hse-place-luneburg-active-1356",
        "name": "Lüneburg",
        "name_historic": "Lüneburg",
        "name_modern": "Lüneburg",
        "notes": "Salt corridor is modelled as a generalized reconstruction in routes.csv.",
        "parent_polity": "Holy Roman Empire",
        "participation_class": "documented_collective_participation",
        "place_id": "luneburg",
        "region": "Lower Saxony",
        "role": "active_city",
        "source": "hse-src-marczinek-data-2025",
        "valid_from": 1356,
        "valid_to": 1669
      },
      "type": "Feature"
    },
    {
      "geometry": {
        "coordinates": [
          10.5268,
          52.2689
        ],
        "type": "Point"
      },
      "properties": {
        "certainty": "high",
        "coordinates": [
          10.5268,
          52.2689
        ],
        "essay_anchor": "city-is-unit",
        "id": "hse-place-braunschweig-active-1356",
        "name": "Braunschweig",
        "name_historic": "Brunswiek",
        "name_modern": "Braunschweig",
        "notes": "Historic Low German form is included for search; phase bounds are analytical.",
        "parent_polity": "Holy Roman Empire",
        "participation_class": "documented_collective_participation",
        "place_id": "braunschweig",
        "region": "Saxon inland",
        "role": "active_city",
        "source": "hse-src-marczinek-data-2025",
        "valid_from": 1356,
        "valid_to": 1669
      },
      "type": "Feature"
    },
    {
      "geometry": {
        "coordinates": [
          11.6276,
          52.1205
        ],
        "type": "Point"
      },
      "properties": {
        "certainty": "medium",
        "coordinates": [
          11.6276,
          52.1205
        ],
        "essay_anchor": "city-is-unit",
        "id": "hse-place-magdeburg-active-1356",
        "name": "Magdeburg",
        "name_historic": "Magdeburg",
        "name_modern": "Magdeburg",
        "notes": "Regional participation avoids implying an unbroken individual attendance record.",
        "parent_polity": "Holy Roman Empire",
        "participation_class": "documented_regional_participation",
        "place_id": "magdeburg",
        "region": "Saxon inland",
        "role": "active_city",
        "source": "hse-src-marczinek-data-2025",
        "valid_from": 1356,
        "valid_to": 1669
      },
      "type": "Feature"
    },
    {
      "geometry": {
        "coordinates": [
          7.4653,
          51.5136
        ],
        "type": "Point"
      },
      "properties": {
        "certainty": "high",
        "coordinates": [
          7.4653,
          51.5136
        ],
        "essay_anchor": "city-is-unit",
        "id": "hse-place-dortmund-active-1356",
        "name": "Dortmund",
        "name_historic": "Dortmund",
        "name_modern": "Dortmund",
        "notes": "Documented city in the research dataset; bounds are the project's analytical window.",
        "parent_polity": "Holy Roman Empire",
        "participation_class": "documented_collective_participation",
        "place_id": "dortmund",
        "region": "Westphalia",
        "role": "active_city",
        "source": "hse-src-marczinek-data-2025",
        "valid_from": 1356,
        "valid_to": 1669
      },
      "type": "Feature"
    },
    {
      "geometry": {
        "coordinates": [
          8.1058,
          51.5711
        ],
        "type": "Point"
      },
      "properties": {
        "certainty": "medium",
        "coordinates": [
          8.1058,
          51.5711
        ],
        "essay_anchor": "city-is-unit",
        "id": "hse-place-soest-represented-1356",
        "name": "Soest",
        "name_historic": "Sööst",
        "name_modern": "Soest",
        "notes": "Regional classification is deliberately less specific than a membership claim.",
        "parent_polity": "Holy Roman Empire",
        "participation_class": "documented_regional_participation",
        "place_id": "soest",
        "region": "Westphalia",
        "role": "represented_city",
        "source": "hse-src-marczinek-data-2025",
        "valid_from": 1356,
        "valid_to": 1669
      },
      "type": "Feature"
    },
    {
      "geometry": {
        "coordinates": [
          7.6261,
          51.9607
        ],
        "type": "Point"
      },
      "properties": {
        "certainty": "medium",
        "coordinates": [
          7.6261,
          51.9607
        ],
        "essay_anchor": "city-is-unit",
        "id": "hse-place-munster-represented-1356",
        "name": "Münster",
        "name_historic": "Münster",
        "name_modern": "Münster",
        "notes": "Regional classification is deliberately less specific than a membership claim.",
        "parent_polity": "Holy Roman Empire",
        "participation_class": "documented_regional_participation",
        "place_id": "munster",
        "region": "Westphalia",
        "role": "represented_city",
        "source": "hse-src-marczinek-data-2025",
        "valid_from": 1356,
        "valid_to": 1669
      },
      "type": "Feature"
    },
    {
      "geometry": {
        "coordinates": [
          8.0472,
          52.2799
        ],
        "type": "Point"
      },
      "properties": {
        "certainty": "medium",
        "coordinates": [
          8.0472,
          52.2799
        ],
        "essay_anchor": "city-is-unit",
        "id": "hse-place-osnabruck-represented-1356",
        "name": "Osnabrück",
        "name_historic": "Osnabrück",
        "name_modern": "Osnabrück",
        "notes": "Regional classification is deliberately less specific than a membership claim.",
        "parent_polity": "Holy Roman Empire",
        "participation_class": "documented_regional_participation",
        "place_id": "osnabruck",
        "region": "Westphalia",
        "role": "represented_city",
        "source": "hse-src-marczinek-data-2025",
        "valid_from": 1356,
        "valid_to": 1669
      },
      "type": "Feature"
    },
    {
      "geometry": {
        "coordinates": [
          9.732,
          52.3759
        ],
        "type": "Point"
      },
      "properties": {
        "certainty": "medium",
        "coordinates": [
          9.732,
          52.3759
        ],
        "essay_anchor": "city-is-unit",
        "id": "hse-place-hannover-represented-1356",
        "name": "Hannover",
        "name_historic": "Hannover",
        "name_modern": "Hannover",
        "notes": "Regional classification is deliberately less specific than a membership claim.",
        "parent_polity": "Holy Roman Empire",
        "participation_class": "documented_regional_participation",
        "place_id": "hannover",
        "region": "Lower Saxony",
        "role": "represented_city",
        "source": "hse-src-marczinek-data-2025",
        "valid_from": 1356,
        "valid_to": 1669
      },
      "type": "Feature"
    },
    {
      "geometry": {
        "coordinates": [
          10.4289,
          51.9059
        ],
        "type": "Point"
      },
      "properties": {
        "certainty": "medium",
        "coordinates": [
          10.4289,
          51.9059
        ],
        "essay_anchor": "goods-draw-different-leagues",
        "id": "hse-place-goslar-represented-1356",
        "name": "Goslar",
        "name_historic": "Goslar",
        "name_modern": "Goslar",
        "notes": "Mining-centre inclusion is not a claim about quantified metal volumes.",
        "parent_polity": "Holy Roman Empire",
        "participation_class": "documented_regional_participation",
        "place_id": "goslar",
        "region": "Harz",
        "role": "represented_city",
        "source": "hse-src-marczinek-data-2025",
        "valid_from": 1356,
        "valid_to": 1669
      },
      "type": "Feature"
    },
    {
      "geometry": {
        "coordinates": [
          9.4765,
          53.5934
        ],
        "type": "Point"
      },
      "properties": {
        "certainty": "medium",
        "coordinates": [
          9.4765,
          53.5934
        ],
        "essay_anchor": "city-is-unit",
        "id": "hse-place-stade-represented-1356",
        "name": "Stade",
        "name_historic": "Stade",
        "name_modern": "Stade",
        "notes": "Regional classification is deliberately less specific than a membership claim.",
        "parent_polity": "Holy Roman Empire",
        "participation_class": "documented_regional_participation",
        "place_id": "stade",
        "region": "Lower Elbe",
        "role": "represented_city",
        "source": "hse-src-marczinek-data-2025",
        "valid_from": 1356,
        "valid_to": 1669
      },
      "type": "Feature"
    },
    {
      "geometry": {
        "coordinates": [
          10.1228,
          54.3233
        ],
        "type": "Point"
      },
      "properties": {
        "certainty": "medium",
        "coordinates": [
          10.1228,
          54.3233
        ],
        "essay_anchor": "city-is-unit",
        "id": "hse-place-kiel-associated-1356",
        "name": "Kiel",
        "name_historic": "Kiel",
        "name_modern": "Kiel",
        "notes": "Mediated classification records network association without asserting independent standing.",
        "parent_polity": "Holy Roman Empire",
        "participation_class": "represented_through_another_city",
        "place_id": "kiel",
        "region": "Wendish-Baltic",
        "role": "associated_town",
        "source": "hse-src-marczinek-data-2025",
        "valid_from": 1356,
        "valid_to": 1669
      },
      "type": "Feature"
    },
    {
      "geometry": {
        "coordinates": [
          11.1503,
          51.7884
        ],
        "type": "Point"
      },
      "properties": {
        "certainty": "medium",
        "coordinates": [
          11.1503,
          51.7884
        ],
        "essay_anchor": "city-is-unit",
        "id": "hse-place-quedlinburg-represented-1356",
        "name": "Quedlinburg",
        "name_historic": "Quedlinburg",
        "name_modern": "Quedlinburg",
        "notes": "Regional classification is deliberately less specific than a membership claim.",
        "parent_polity": "Holy Roman Empire",
        "participation_class": "documented_regional_participation",
        "place_id": "quedlinburg",
        "region": "Saxon inland",
        "role": "represented_city",
        "source": "hse-src-marczinek-data-2025",
        "valid_from": 1356,
        "valid_to": 1669
      },
      "type": "Feature"
    },
    {
      "geometry": {
        "coordinates": [
          11.9705,
          51.4825
        ],
        "type": "Point"
      },
      "properties": {
        "certainty": "medium",
        "coordinates": [
          11.9705,
          51.4825
        ],
        "essay_anchor": "goods-draw-different-leagues",
        "id": "hse-place-halle-represented-1356",
        "name": "Halle",
        "name_historic": "Halle an der Saale",
        "name_modern": "Halle (Saale)",
        "notes": "Salt-producing context is descriptive; no volume is encoded.",
        "parent_polity": "Holy Roman Empire",
        "participation_class": "documented_regional_participation",
        "place_id": "halle",
        "region": "Saxon inland",
        "role": "represented_city",
        "source": "hse-src-marczinek-data-2025",
        "valid_from": 1356,
        "valid_to": 1669
      },
      "type": "Feature"
    },
    {
      "geometry": {
        "coordinates": [
          11.0299,
          50.9848
        ],
        "type": "Point"
      },
      "properties": {
        "certainty": "medium",
        "coordinates": [
          11.0299,
          50.9848
        ],
        "essay_anchor": "city-is-unit",
        "id": "hse-place-erfurt-represented-1356",
        "name": "Erfurt",
        "name_historic": "Erfurt",
        "name_modern": "Erfurt",
        "notes": "Regional classification is deliberately less specific than a membership claim.",
        "parent_polity": "Holy Roman Empire",
        "participation_class": "documented_regional_participation",
        "place_id": "erfurt",
        "region": "Thuringia",
        "role": "represented_city",
        "source": "hse-src-marczinek-data-2025",
        "valid_from": 1356,
        "valid_to": 1669
      },
      "type": "Feature"
    },
    {
      "geometry": {
        "coordinates": [
          9.9158,
          51.5413
        ],
        "type": "Point"
      },
      "properties": {
        "certainty": "medium",
        "coordinates": [
          9.9158,
          51.5413
        ],
        "essay_anchor": "city-is-unit",
        "id": "hse-place-gottingen-represented-1356",
        "name": "Göttingen",
        "name_historic": "Göttingen",
        "name_modern": "Göttingen",
        "notes": "Regional classification is deliberately less specific than a membership claim.",
        "parent_polity": "Holy Roman Empire",
        "participation_class": "documented_regional_participation",
        "place_id": "gottingen",
        "region": "Lower Saxony",
        "role": "represented_city",
        "source": "hse-src-marczinek-data-2025",
        "valid_from": 1356,
        "valid_to": 1669
      },
      "type": "Feature"
    },
    {
      "geometry": {
        "coordinates": [
          9.8694,
          51.82
        ],
        "type": "Point"
      },
      "properties": {
        "certainty": "medium",
        "coordinates": [
          9.8694,
          51.82
        ],
        "essay_anchor": "goods-draw-different-leagues",
        "id": "hse-place-einbeck-represented-1356",
        "name": "Einbeck",
        "name_historic": "Einbeck",
        "name_modern": "Einbeck",
        "notes": "Commodity context remains qualitative and unquantified.",
        "parent_polity": "Holy Roman Empire",
        "participation_class": "documented_regional_participation",
        "place_id": "einbeck",
        "region": "Lower Saxony",
        "role": "represented_city",
        "source": "hse-src-marczinek-data-2025",
        "valid_from": 1356,
        "valid_to": 1669
      },
      "type": "Feature"
    },
    {
      "geometry": {
        "coordinates": [
          9.3622,
          52.1083
        ],
        "type": "Point"
      },
      "properties": {
        "certainty": "medium",
        "coordinates": [
          9.3622,
          52.1083
        ],
        "essay_anchor": "city-is-unit",
        "id": "hse-place-hameln-represented-1356",
        "name": "Hameln",
        "name_historic": "Hameln",
        "name_modern": "Hameln",
        "notes": "Regional classification is deliberately less specific than a membership claim.",
        "parent_polity": "Holy Roman Empire",
        "participation_class": "documented_regional_participation",
        "place_id": "hameln",
        "region": "Lower Weser",
        "role": "represented_city",
        "source": "hse-src-marczinek-data-2025",
        "valid_from": 1356,
        "valid_to": 1669
      },
      "type": "Feature"
    },
    {
      "geometry": {
        "coordinates": [
          8.8949,
          52.2965
        ],
        "type": "Point"
      },
      "properties": {
        "certainty": "medium",
        "coordinates": [
          8.8949,
          52.2965
        ],
        "essay_anchor": "city-is-unit",
        "id": "hse-place-minden-represented-1356",
        "name": "Minden",
        "name_historic": "Minden",
        "name_modern": "Minden",
        "notes": "Regional classification is deliberately less specific than a membership claim.",
        "parent_polity": "Holy Roman Empire",
        "participation_class": "documented_regional_participation",
        "place_id": "minden",
        "region": "Westphalia",
        "role": "represented_city",
        "source": "hse-src-marczinek-data-2025",
        "valid_from": 1356,
        "valid_to": 1669
      },
      "type": "Feature"
    },
    {
      "geometry": {
        "coordinates": [
          8.5325,
          52.0302
        ],
        "type": "Point"
      },
      "properties": {
        "certainty": "medium",
        "coordinates": [
          8.5325,
          52.0302
        ],
        "essay_anchor": "city-is-unit",
        "id": "hse-place-bielefeld-represented-1356",
        "name": "Bielefeld",
        "name_historic": "Bielefeld",
        "name_modern": "Bielefeld",
        "notes": "Regional classification is deliberately less specific than a membership claim.",
        "parent_polity": "Holy Roman Empire",
        "participation_class": "documented_regional_participation",
        "place_id": "bielefeld",
        "region": "Westphalia",
        "role": "represented_city",
        "source": "hse-src-marczinek-data-2025",
        "valid_from": 1356,
        "valid_to": 1669
      },
      "type": "Feature"
    },
    {
      "geometry": {
        "coordinates": [
          8.7575,
          51.7189
        ],
        "type": "Point"
      },
      "properties": {
        "certainty": "medium",
        "coordinates": [
          8.7575,
          51.7189
        ],
        "essay_anchor": "city-is-unit",
        "id": "hse-place-paderborn-represented-1356",
        "name": "Paderborn",
        "name_historic": "Paderborn",
        "name_modern": "Paderborn",
        "notes": "Regional classification is deliberately less specific than a membership claim.",
        "parent_polity": "Holy Roman Empire",
        "participation_class": "documented_regional_participation",
        "place_id": "paderborn",
        "region": "Westphalia",
        "role": "represented_city",
        "source": "hse-src-marczinek-data-2025",
        "valid_from": 1356,
        "valid_to": 1669
      },
      "type": "Feature"
    },
    {
      "geometry": {
        "coordinates": [
          19.4088,
          54.1522
        ],
        "type": "Point"
      },
      "properties": {
        "certainty": "high",
        "coordinates": [
          19.4088,
          54.1522
        ],
        "essay_anchor": "city-is-unit",
        "id": "hse-place-elblag-active-1356",
        "name": "Elbląg",
        "name_historic": "Elbing",
        "name_modern": "Elbląg",
        "notes": "Historic German name retained as a search synonym.",
        "parent_polity": "Teutonic and Royal Prussia",
        "participation_class": "documented_collective_participation",
        "place_id": "elblag",
        "region": "Prussia",
        "role": "active_city",
        "source": "hse-src-marczinek-data-2025",
        "valid_from": 1356,
        "valid_to": 1669
      },
      "type": "Feature"
    },
    {
      "geometry": {
        "coordinates": [
          18.5984,
          53.0138
        ],
        "type": "Point"
      },
      "properties": {
        "certainty": "high",
        "coordinates": [
          18.5984,
          53.0138
        ],
        "essay_anchor": "city-is-unit",
        "id": "hse-place-torun-active-1356",
        "name": "Toruń",
        "name_historic": "Thorn",
        "name_modern": "Toruń",
        "notes": "Historic German name retained as a search synonym.",
        "parent_polity": "Teutonic and Royal Prussia",
        "participation_class": "documented_collective_participation",
        "place_id": "torun",
        "region": "Prussia",
        "role": "active_city",
        "source": "hse-src-marczinek-data-2025",
        "valid_from": 1356,
        "valid_to": 1669
      },
      "type": "Feature"
    },
    {
      "geometry": {
        "coordinates": [
          20.4522,
          54.7104
        ],
        "type": "Point"
      },
      "properties": {
        "certainty": "medium",
        "coordinates": [
          20.4522,
          54.7104
        ],
        "essay_anchor": "city-is-unit",
        "id": "hse-place-konigsberg-active-1356",
        "name": "Königsberg",
        "name_historic": "Königsberg",
        "name_modern": "Kaliningrad",
        "notes": "Stable place_id follows the historic city name while the modern label records Kaliningrad.",
        "parent_polity": "Teutonic and Ducal Prussia",
        "participation_class": "documented_collective_participation",
        "place_id": "konigsberg",
        "region": "Prussia",
        "role": "active_city",
        "source": "hse-src-marczinek-data-2025",
        "valid_from": 1356,
        "valid_to": 1669
      },
      "type": "Feature"
    },
    {
      "geometry": {
        "coordinates": [
          24.7536,
          59.437
        ],
        "type": "Point"
      },
      "properties": {
        "certainty": "high",
        "coordinates": [
          24.7536,
          59.437
        ],
        "essay_anchor": "city-is-unit",
        "id": "hse-place-tallinn-active-1356",
        "name": "Tallinn",
        "name_historic": "Reval",
        "name_modern": "Tallinn",
        "notes": "Historic German name retained as a search synonym.",
        "parent_polity": "Livonian and Swedish rule",
        "participation_class": "documented_collective_participation",
        "place_id": "tallinn",
        "region": "Livonia",
        "role": "active_city",
        "source": "hse-src-marczinek-data-2025",
        "valid_from": 1356,
        "valid_to": 1669
      },
      "type": "Feature"
    },
    {
      "geometry": {
        "coordinates": [
          26.729,
          58.3776
        ],
        "type": "Point"
      },
      "properties": {
        "certainty": "high",
        "coordinates": [
          26.729,
          58.3776
        ],
        "essay_anchor": "city-is-unit",
        "id": "hse-place-tartu-active-1356",
        "name": "Tartu",
        "name_historic": "Dorpat",
        "name_modern": "Tartu",
        "notes": "Historic German name retained as a search synonym.",
        "parent_polity": "Livonian and Polish-Swedish rule",
        "participation_class": "documented_collective_participation",
        "place_id": "tartu",
        "region": "Livonia",
        "role": "active_city",
        "source": "hse-src-marczinek-data-2025",
        "valid_from": 1356,
        "valid_to": 1669
      },
      "type": "Feature"
    },
    {
      "geometry": {
        "coordinates": [
          24.4971,
          58.3859
        ],
        "type": "Point"
      },
      "properties": {
        "certainty": "medium",
        "coordinates": [
          24.4971,
          58.3859
        ],
        "essay_anchor": "city-is-unit",
        "id": "hse-place-parnu-represented-1356",
        "name": "Pärnu",
        "name_historic": "Pernau",
        "name_modern": "Pärnu",
        "notes": "Regional classification is deliberately less specific than a membership claim.",
        "parent_polity": "Livonian and Swedish rule",
        "participation_class": "documented_regional_participation",
        "place_id": "parnu",
        "region": "Livonia",
        "role": "represented_city",
        "source": "hse-src-marczinek-data-2025",
        "valid_from": 1356,
        "valid_to": 1669
      },
      "type": "Feature"
    },
    {
      "geometry": {
        "coordinates": [
          25.59,
          58.3639
        ],
        "type": "Point"
      },
      "properties": {
        "certainty": "medium",
        "coordinates": [
          25.59,
          58.3639
        ],
        "essay_anchor": "city-is-unit",
        "id": "hse-place-viljandi-associated-1356",
        "name": "Viljandi",
        "name_historic": "Fellin",
        "name_modern": "Viljandi",
        "notes": "Mediated classification records network association without asserting independent standing.",
        "parent_polity": "Livonian and Polish-Swedish rule",
        "participation_class": "represented_through_another_city",
        "place_id": "viljandi",
        "region": "Livonia",
        "role": "associated_town",
        "source": "hse-src-marczinek-data-2025",
        "valid_from": 1356,
        "valid_to": 1669
      },
      "type": "Feature"
    },
    {
      "geometry": {
        "coordinates": [
          19.945,
          50.0647
        ],
        "type": "Point"
      },
      "properties": {
        "certainty": "medium",
        "coordinates": [
          19.945,
          50.0647
        ],
        "essay_anchor": "goods-draw-different-leagues",
        "id": "hse-place-krakow-associated-1356",
        "name": "Kraków",
        "name_historic": "Krakau",
        "name_modern": "Kraków",
        "notes": "Inclusion records network association; no claim of continuous independent participation is made.",
        "parent_polity": "Kingdom of Poland",
        "participation_class": "represented_through_another_city",
        "place_id": "krakow",
        "region": "Polish inland",
        "role": "associated_town",
        "source": "hse-src-marczinek-data-2025",
        "valid_from": 1356,
        "valid_to": 1669
      },
      "type": "Feature"
    },
    {
      "geometry": {
        "coordinates": [
          17.0385,
          51.1079
        ],
        "type": "Point"
      },
      "properties": {
        "certainty": "medium",
        "coordinates": [
          17.0385,
          51.1079
        ],
        "essay_anchor": "goods-draw-different-leagues",
        "id": "hse-place-wroclaw-associated-1356",
        "name": "Wrocław",
        "name_historic": "Breslau",
        "name_modern": "Wrocław",
        "notes": "Historic German name retained as a search synonym; political label is intentionally broad.",
        "parent_polity": "Bohemian Crown and Habsburg monarchy",
        "participation_class": "represented_through_another_city",
        "place_id": "wroclaw",
        "region": "Silesia",
        "role": "associated_town",
        "source": "hse-src-marczinek-data-2025",
        "valid_from": 1356,
        "valid_to": 1669
      },
      "type": "Feature"
    },
    {
      "geometry": {
        "coordinates": [
          18.0686,
          59.3293
        ],
        "type": "Point"
      },
      "properties": {
        "certainty": "medium",
        "coordinates": [
          18.0686,
          59.3293
        ],
        "essay_anchor": "goods-draw-different-leagues",
        "id": "hse-place-stockholm-associated-1356",
        "name": "Stockholm",
        "name_historic": "Stockholm",
        "name_modern": "Stockholm",
        "notes": "Commercial association does not assert collective town participation.",
        "parent_polity": "Kingdom of Sweden",
        "participation_class": "commercial_association_only",
        "place_id": "stockholm",
        "region": "Sweden",
        "role": "associated_town",
        "source": "hse-src-marczinek-data-2025",
        "valid_from": 1356,
        "valid_to": 1669
      },
      "type": "Feature"
    },
    {
      "geometry": {
        "coordinates": [
          16.3568,
          56.6634
        ],
        "type": "Point"
      },
      "properties": {
        "certainty": "medium",
        "coordinates": [
          16.3568,
          56.6634
        ],
        "essay_anchor": "goods-draw-different-leagues",
        "id": "hse-place-kalmar-associated-1356",
        "name": "Kalmar",
        "name_historic": "Kalmar",
        "name_modern": "Kalmar",
        "notes": "Commercial association does not assert collective town participation.",
        "parent_polity": "Kingdom of Sweden",
        "participation_class": "commercial_association_only",
        "place_id": "kalmar",
        "region": "Sweden",
        "role": "associated_town",
        "source": "hse-src-marczinek-data-2025",
        "valid_from": 1356,
        "valid_to": 1669
      },
      "type": "Feature"
    },
    {
      "geometry": {
        "coordinates": [
          22.2666,
          60.4518
        ],
        "type": "Point"
      },
      "properties": {
        "certainty": "medium",
        "coordinates": [
          22.2666,
          60.4518
        ],
        "essay_anchor": "goods-draw-different-leagues",
        "id": "hse-place-turku-associated-1356",
        "name": "Turku",
        "name_historic": "Åbo",
        "name_modern": "Turku",
        "notes": "Historic Swedish name retained as a search synonym; commercial association does not assert membership.",
        "parent_polity": "Kingdom of Sweden",
        "participation_class": "commercial_association_only",
        "place_id": "turku",
        "region": "Finland",
        "role": "associated_town",
        "source": "hse-src-marczinek-data-2025",
        "valid_from": 1356,
        "valid_to": 1669
      },
      "type": "Feature"
    },
    {
      "geometry": {
        "coordinates": [
          31.2742,
          58.5256
        ],
        "type": "Point"
      },
      "properties": {
        "certainty": "high",
        "coordinates": [
          31.2742,
          58.5256
        ],
        "essay_anchor": "four-cities-inside-other-cities",
        "id": "hse-place-novgorod-kontor-1295",
        "name": "Novgorod",
        "name_historic": "Nowgorod",
        "name_modern": "Veliky Novgorod",
        "notes": "Bounds match the selected Second Schra institutional phase and Peterhof suppression in the reviewed Kontor dossier.",
        "parent_polity": "Novgorod Republic",
        "participation_class": "commercial_association_only",
        "place_id": "novgorod",
        "region": "North-west Rus'",
        "role": "kontor",
        "source": "hse-src-unesco-hanse-2017",
        "valid_from": 1295,
        "valid_to": 1494
      },
      "type": "Feature"
    },
    {
      "geometry": {
        "coordinates": [
          5.3221,
          60.3913
        ],
        "type": "Point"
      },
      "properties": {
        "certainty": "high",
        "coordinates": [
          5.3221,
          60.3913
        ],
        "essay_anchor": "four-cities-inside-other-cities",
        "id": "hse-place-bergen-kontor-1350",
        "name": "Bergen",
        "name_historic": "Bergen",
        "name_modern": "Bergen",
        "notes": "Bounds match the reviewed Bryggen Kontor dossier and preserve its afterlife beyond 1669.",
        "parent_polity": "Kingdom of Norway",
        "participation_class": "commercial_association_only",
        "place_id": "bergen",
        "region": "Norway",
        "role": "kontor",
        "source": "hse-src-unesco-hanse-2017",
        "valid_from": 1350,
        "valid_to": 1761
      },
      "type": "Feature"
    },
    {
      "geometry": {
        "coordinates": [
          -0.1278,
          51.5074
        ],
        "type": "Point"
      },
      "properties": {
        "certainty": "high",
        "coordinates": [
          -0.1278,
          51.5074
        ],
        "essay_anchor": "four-cities-inside-other-cities",
        "id": "hse-place-london-kontor-1554",
        "name": "London",
        "name_historic": "Londinium",
        "name_modern": "London",
        "notes": "Bounds are the reviewed 1554 by-laws phase through suppression in 1598; they are not foundation dates.",
        "parent_polity": "Kingdom of England",
        "participation_class": "commercial_association_only",
        "place_id": "london",
        "region": "England",
        "role": "kontor",
        "source": "hse-src-unesco-hanse-2017",
        "valid_from": 1554,
        "valid_to": 1598
      },
      "type": "Feature"
    },
    {
      "geometry": {
        "coordinates": [
          3.2247,
          51.2093
        ],
        "type": "Point"
      },
      "properties": {
        "certainty": "high",
        "coordinates": [
          3.2247,
          51.2093
        ],
        "essay_anchor": "four-cities-inside-other-cities",
        "id": "hse-place-bruges-kontor-1458",
        "name": "Bruges",
        "name_historic": "Brügge",
        "name_modern": "Brugge",
        "notes": "Bounds are the reviewed charter group window and not the full lifetime of Hanseatic presence.",
        "parent_polity": "Burgundian Netherlands",
        "participation_class": "commercial_association_only",
        "place_id": "bruges",
        "region": "Flanders",
        "role": "kontor",
        "source": "hse-src-unesco-hanse-2017",
        "valid_from": 1458,
        "valid_to": 1502
      },
      "type": "Feature"
    },
    {
      "geometry": {
        "coordinates": [
          4.4025,
          51.2194
        ],
        "type": "Point"
      },
      "properties": {
        "certainty": "medium",
        "coordinates": [
          4.4025,
          51.2194
        ],
        "essay_anchor": "four-cities-inside-other-cities",
        "id": "hse-place-antwerp-branch-1520",
        "name": "Antwerp",
        "name_historic": "Antwerpen",
        "name_modern": "Antwerpen",
        "notes": "The role records the institutional-commercial shift from Bruges without treating it as a sovereign transfer.",
        "parent_polity": "Habsburg Netherlands",
        "participation_class": "commercial_association_only",
        "place_id": "antwerp",
        "region": "Brabant",
        "role": "foreign_branch",
        "source": "hse-src-wubs-mrozewicz-2013",
        "valid_from": 1520,
        "valid_to": 1669
      },
      "type": "Feature"
    },
    {
      "geometry": {
        "coordinates": [
          -0.0266,
          52.9789
        ],
        "type": "Point"
      },
      "properties": {
        "certainty": "medium",
        "coordinates": [
          -0.0266,
          52.9789
        ],
        "essay_anchor": "goods-draw-different-leagues",
        "id": "hse-place-boston-associated-1356",
        "name": "Boston",
        "name_historic": "St Botolph's Town",
        "name_modern": "Boston",
        "notes": "English market association is encoded without asserting town membership.",
        "parent_polity": "Kingdom of England",
        "participation_class": "commercial_association_only",
        "place_id": "boston",
        "region": "Lincolnshire",
        "role": "associated_town",
        "source": "hse-src-marczinek-data-2025",
        "valid_from": 1356,
        "valid_to": 1669
      },
      "type": "Feature"
    },
    {
      "geometry": {
        "coordinates": [
          0.3952,
          52.7517
        ],
        "type": "Point"
      },
      "properties": {
        "certainty": "medium",
        "coordinates": [
          0.3952,
          52.7517
        ],
        "essay_anchor": "goods-draw-different-leagues",
        "id": "hse-place-kings-lynn-associated-1356",
        "name": "King's Lynn",
        "name_historic": "Bishop's Lynn",
        "name_modern": "King's Lynn",
        "notes": "English market association is encoded without asserting town membership.",
        "parent_polity": "Kingdom of England",
        "participation_class": "commercial_association_only",
        "place_id": "kings-lynn",
        "region": "Norfolk",
        "role": "associated_town",
        "source": "hse-src-marczinek-data-2025",
        "valid_from": 1356,
        "valid_to": 1669
      },
      "type": "Feature"
    },
    {
      "geometry": {
        "coordinates": [
          1.1482,
          52.0567
        ],
        "type": "Point"
      },
      "properties": {
        "certainty": "medium",
        "coordinates": [
          1.1482,
          52.0567
        ],
        "essay_anchor": "goods-draw-different-leagues",
        "id": "hse-place-ipswich-associated-1356",
        "name": "Ipswich",
        "name_historic": "Gippeswic",
        "name_modern": "Ipswich",
        "notes": "English market association is encoded without asserting town membership.",
        "parent_polity": "Kingdom of England",
        "participation_class": "commercial_association_only",
        "place_id": "ipswich",
        "region": "Suffolk",
        "role": "associated_town",
        "source": "hse-src-marczinek-data-2025",
        "valid_from": 1356,
        "valid_to": 1669
      },
      "type": "Feature"
    },
    {
      "geometry": {
        "coordinates": [
          6.1552,
          52.2661
        ],
        "type": "Point"
      },
      "properties": {
        "certainty": "high",
        "coordinates": [
          6.1552,
          52.2661
        ],
        "essay_anchor": "city-is-unit",
        "id": "hse-place-deventer-represented-1367",
        "name": "Deventer",
        "name_historic": "Deventer",
        "name_modern": "Deventer",
        "notes": "Henn documents Zuiderzee and IJssel participation from 1367 through the last meeting in his study window.",
        "parent_polity": "Low Countries",
        "participation_class": "documented_collective_participation",
        "place_id": "deventer",
        "region": "IJssel",
        "role": "represented_city",
        "source": "hse-src-henn-2017",
        "valid_from": 1367,
        "valid_to": 1507
      },
      "type": "Feature"
    },
    {
      "geometry": {
        "coordinates": [
          5.9111,
          52.555
        ],
        "type": "Point"
      },
      "properties": {
        "certainty": "high",
        "coordinates": [
          5.9111,
          52.555
        ],
        "essay_anchor": "city-is-unit",
        "id": "hse-place-kampen-represented-1367",
        "name": "Kampen",
        "name_historic": "Kampen",
        "name_modern": "Kampen",
        "notes": "Henn cautions against reducing Kampen's changing standing to a simple membership or readmission claim.",
        "parent_polity": "Low Countries",
        "participation_class": "documented_collective_participation",
        "place_id": "kampen",
        "region": "IJssel",
        "role": "represented_city",
        "source": "hse-src-henn-2017",
        "valid_from": 1367,
        "valid_to": 1507
      },
      "type": "Feature"
    },
    {
      "geometry": {
        "coordinates": [
          6.083,
          52.5168
        ],
        "type": "Point"
      },
      "properties": {
        "certainty": "high",
        "coordinates": [
          6.083,
          52.5168
        ],
        "essay_anchor": "city-is-unit",
        "id": "hse-place-zwolle-represented-1367",
        "name": "Zwolle",
        "name_historic": "Zwolle",
        "name_modern": "Zwolle",
        "notes": "Henn cautions against reducing Zwolle's changing standing to a simple membership claim.",
        "parent_polity": "Low Countries",
        "participation_class": "documented_regional_participation",
        "place_id": "zwolle",
        "region": "IJssel",
        "role": "represented_city",
        "source": "hse-src-henn-2017",
        "valid_from": 1367,
        "valid_to": 1507
      },
      "type": "Feature"
    },
    {
      "geometry": {
        "coordinates": [
          5.62,
          52.3417
        ],
        "type": "Point"
      },
      "properties": {
        "certainty": "high",
        "coordinates": [
          5.62,
          52.3417
        ],
        "essay_anchor": "city-is-unit",
        "id": "hse-place-harderwijk-represented-1367",
        "name": "Harderwijk",
        "name_historic": "Harderwijk",
        "name_modern": "Harderwijk",
        "notes": "Henn documents first Diet attendance in 1367 and collective participation in the study window.",
        "parent_polity": "Low Countries",
        "participation_class": "documented_collective_participation",
        "place_id": "harderwijk",
        "region": "Zuiderzee",
        "role": "represented_city",
        "source": "hse-src-henn-2017",
        "valid_from": 1367,
        "valid_to": 1507
      },
      "type": "Feature"
    },
    {
      "geometry": {
        "coordinates": [
          5.8431,
          52.4472
        ],
        "type": "Point"
      },
      "properties": {
        "certainty": "high",
        "coordinates": [
          5.8431,
          52.4472
        ],
        "essay_anchor": "city-is-unit",
        "id": "hse-place-elburg-represented-1367",
        "name": "Elburg",
        "name_historic": "Elburg",
        "name_modern": "Elburg",
        "notes": "Henn documents first Diet attendance in 1367 and collective participation in the study window.",
        "parent_polity": "Low Countries",
        "participation_class": "documented_collective_participation",
        "place_id": "elburg",
        "region": "Zuiderzee",
        "role": "represented_city",
        "source": "hse-src-henn-2017",
        "valid_from": 1367,
        "valid_to": 1507
      },
      "type": "Feature"
    },
    {
      "geometry": {
        "coordinates": [
          5.8372,
          51.8126
        ],
        "type": "Point"
      },
      "properties": {
        "certainty": "high",
        "coordinates": [
          5.8372,
          51.8126
        ],
        "essay_anchor": "city-is-unit",
        "id": "hse-place-nijmegen-represented-1447",
        "name": "Nijmegen",
        "name_historic": "Nimwegen",
        "name_modern": "Nijmegen",
        "notes": "The 1447 quarter arrangement names Nijmegen as a convener; bounds are Henn's analytical window.",
        "parent_polity": "Low Countries",
        "participation_class": "documented_regional_participation",
        "place_id": "nijmegen",
        "region": "Lower Rhine",
        "role": "represented_city",
        "source": "hse-src-henn-2017",
        "valid_from": 1447,
        "valid_to": 1507
      },
      "type": "Feature"
    },
    {
      "geometry": {
        "coordinates": [
          5.8987,
          51.9851
        ],
        "type": "Point"
      },
      "properties": {
        "certainty": "medium",
        "coordinates": [
          5.8987,
          51.9851
        ],
        "essay_anchor": "city-is-unit",
        "id": "hse-place-arnhem-associated-1447",
        "name": "Arnhem",
        "name_historic": "Arnheim",
        "name_modern": "Arnhem",
        "notes": "The 1447 regional arrangement supports mediated representation rather than a membership label.",
        "parent_polity": "Low Countries",
        "participation_class": "represented_through_another_city",
        "place_id": "arnhem",
        "region": "Lower Rhine",
        "role": "associated_town",
        "source": "hse-src-henn-2017",
        "valid_from": 1447,
        "valid_to": 1507
      },
      "type": "Feature"
    },
    {
      "geometry": {
        "coordinates": [
          6.6177,
          51.657
        ],
        "type": "Point"
      },
      "properties": {
        "certainty": "medium",
        "coordinates": [
          6.6177,
          51.657
        ],
        "essay_anchor": "city-is-unit",
        "id": "hse-place-wesel-represented-1447",
        "name": "Wesel",
        "name_historic": "Wesel",
        "name_modern": "Wesel",
        "notes": "The 1447 regional arrangement supports a regional classification.",
        "parent_polity": "Holy Roman Empire",
        "participation_class": "documented_regional_participation",
        "place_id": "wesel",
        "region": "Lower Rhine",
        "role": "represented_city",
        "source": "hse-src-henn-2017",
        "valid_from": 1447,
        "valid_to": 1507
      },
      "type": "Feature"
    },
    {
      "geometry": {
        "coordinates": [
          6.7623,
          51.4344
        ],
        "type": "Point"
      },
      "properties": {
        "certainty": "medium",
        "coordinates": [
          6.7623,
          51.4344
        ],
        "essay_anchor": "city-is-unit",
        "id": "hse-place-duisburg-associated-1447",
        "name": "Duisburg",
        "name_historic": "Duisburg",
        "name_modern": "Duisburg",
        "notes": "The 1447 regional arrangement supports mediated representation rather than a membership label.",
        "parent_polity": "Holy Roman Empire",
        "participation_class": "represented_through_another_city",
        "place_id": "duisburg",
        "region": "Lower Rhine",
        "role": "associated_town",
        "source": "hse-src-henn-2017",
        "valid_from": 1447,
        "valid_to": 1507
      },
      "type": "Feature"
    }
  ],
  "type": "FeatureCollection"
}
