{
  "type": "FeatureCollection",
  "name": "VMN authored possession-phase extents",
  "features": [
    {
      "type": "Feature",
      "properties": { "territory": "crete", "start_date": "1211-01-01" },
      "geometry": {
        "type": "Polygon",
        "coordinates": [[[22.75, 34.75], [26.55, 34.75], [26.55, 35.75], [22.75, 35.75], [22.75, 34.75]]]
      }
    },
    {
      "type": "Feature",
      "properties": { "territory": "corfu", "start_date": "1386-01-01" },
      "geometry": {
        "type": "Polygon",
        "coordinates": [[[19.55, 39.3], [20.3, 39.3], [20.3, 40.05], [19.55, 40.05], [19.55, 39.3]]]
      }
    },
    {
      "type": "Feature",
      "properties": { "territory": "corfu", "start_date": "1387-01-01" },
      "geometry": {
        "type": "Polygon",
        "coordinates": [[[19.55, 39.3], [20.3, 39.3], [20.3, 40.05], [19.55, 40.05], [19.55, 39.3]]]
      }
    },
    {
      "type": "Feature",
      "properties": { "territory": "dalmatia", "start_date": "1409-07-09" },
      "geometry": {
        "type": "Polygon",
        "coordinates": [[[13.1, 44.7], [13.3, 45.8], [15.4, 45.4], [19.4, 42.4], [18.7, 41.8], [16.0, 43.1], [13.1, 44.7]]]
      }
    },
    {
      "type": "Feature",
      "properties": { "territory": "dalmatia", "start_date": "1420-01-01" },
      "geometry": {
        "type": "Polygon",
        "coordinates": [[[13.1, 44.7], [13.3, 45.8], [15.4, 45.4], [19.4, 42.4], [18.7, 41.8], [16.0, 43.1], [13.1, 44.7]]]
      }
    },
    {
      "type": "Feature",
      "properties": { "territory": "negroponte", "start_date": "1209-01-01" },
      "geometry": {
        "type": "Polygon",
        "coordinates": [[[22.75, 37.75], [24.25, 37.75], [24.25, 39.15], [22.75, 39.15], [22.75, 37.75]]]
      }
    },
    {
      "type": "Feature",
      "properties": { "territory": "negroponte", "start_date": "1390-01-01" },
      "geometry": {
        "type": "Polygon",
        "coordinates": [[[22.75, 37.75], [24.25, 37.75], [24.25, 39.15], [22.75, 39.15], [22.75, 37.75]]]
      }
    },
    {
      "type": "Feature",
      "properties": { "territory": "morea", "start_date": "1207-01-01" },
      "geometry": {
        "type": "MultiPolygon",
        "coordinates": [
          [[[21.62, 36.72], [21.77, 36.72], [21.77, 36.9], [21.62, 36.9], [21.62, 36.72]]],
          [[[21.89, 36.74], [22.02, 36.74], [22.02, 36.88], [21.89, 36.88], [21.89, 36.74]]],
          [[[22.65, 37.49], [22.92, 37.49], [22.92, 37.72], [22.65, 37.72], [22.65, 37.49]]]
        ]
      }
    },
    {
      "type": "Feature",
      "properties": { "territory": "morea", "start_date": "1685-08-11" },
      "geometry": {
        "type": "Polygon",
        "coordinates": [[[20.8, 36.2], [23.7, 36.2], [23.7, 38.5], [20.8, 38.5], [20.8, 36.2]]]
      }
    },
    {
      "type": "Feature",
      "properties": { "territory": "cyprus", "start_date": "1489-02-26" },
      "geometry": {
        "type": "Polygon",
        "coordinates": [[[32.1, 34.4], [34.8, 34.4], [34.8, 35.8], [32.1, 35.8], [32.1, 34.4]]]
      }
    },
    {
      "type": "Feature",
      "properties": { "territory": "albania_veneta", "start_date": "1392-01-01" },
      "geometry": {
        "type": "Polygon",
        "coordinates": [[[18.1, 41.6], [20.1, 41.6], [20.1, 42.75], [18.1, 42.75], [18.1, 41.6]]]
      }
    }
  ]
}
