{"type":"FeatureCollection","name":"vmn-route-paths","crs":{"type":"name","properties":{"name":"urn:ogc:def:crs:OGC:1.3:CRS84"}},"features":[{"type":"Feature","properties":{"route_id":"muda_romania","waypoints":"venice|zara|ragusa|modon|negroponte|constantinople_quarter|trebizond|tana","method":"searoute draft; hand-corrected against Natural Earth 1:10m land"},"geometry":{"type":"LineString","coordinates":[[12.335,45.437],[12.388379286434136,45.41321981316237],[12.446651,45.408832],[13.1,45.3],[13.391686,45.073133],[13.671293,44.855661],[13.725541,44.813468],[14,44.6],[14.188601,44.458549],[14.296433540585054,44.49134355529844],[14.396772,44.542681],[14.559383,44.385055],[15.231672,44.096422],[15.231,44.119],[15.231672,44.096422],[14.559383,44.385055],[14.64270730208232,44.26918514884149],[14.741411,44.166101],[14.929191,44.021834],[15.132163,43.865895],[15.162878,43.845879],[15.430688,43.671351],[16.022885,43.469128],[16.154436796862772,43.465597783614186],[16.28549646352944,43.47205545028085],[16.416064,43.488501],[16.418491,43.342174],[16.37785897015727,43.31910846217903],[16.353595303490604,43.28455046217903],[16.3457,43.2385],[16.320196,43.084808],[16.839582,43.02806],[17.087139,42.97481],[17.13959534505002,42.97270078801068],[17.189754011716683,42.960859121344015],[17.237615,42.939285],[17.684189,42.772042],[18.0047,42.6272],[18.111,42.64],[18.0047,42.6272],[18.047817,42.375008],[18.130095,41.893768],[18.158915,41.7252],[18.245282,41.220045],[18.3,40.9],[18.389003,40.781329],[18.509783,40.62029],[18.9,40.1],[19.090105,39.783159],[19.489188,39.118019],[19.8,38.6],[20.319182,37.971516],[20.393124,37.882008],[21.5038,36.8502],[21.703,36.818],[21.5038,36.8502],[22.119,36.4492],[22.39158,36.372798],[22.797527207631806,36.38536350280846],[23.200333874298472,36.427764169475125],[23.6,36.5],[23.681397584568344,36.72612701624019],[23.886715,36.851042],[23.999544,36.989186],[24.1095,37.123812],[24.236675,37.27952],[24.295629,37.351701],[24.339386,37.405274],[24.368196,37.488591],[24.376582,37.512828],[24.437988,37.690383],[24.45,37.8],[24.372282,37.856919],[24.237839,37.953719],[24.154683,38.032558],[24.13836,38.092597],[24.095199,38.194201],[23.978701,38.289511],[23.823371,38.350444],[23.655281,38.383248],[23.611679,38.438665],[23.58284,38.44764],[23.595371,38.477379],[23.594,38.464],[23.595371,38.477379],[23.58284,38.44764],[23.611679,38.438665],[23.655281,38.383248],[23.823371,38.350444],[23.978701,38.289511],[24.095199,38.194201],[24.13836,38.092597],[24.154683,38.032558],[24.237839,37.953719],[24.520041,37.90673],[24.657285,38.115863],[25.337942,39.153055],[25.5,39.4],[25.700208,39.600208],[25.766724,39.666724],[26.315,40.11],[26.36,40.135],[26.385,40.16],[26.405,40.195],[26.768188,40.440676],[27.277634,40.60495],[27.664870603737686,40.69162081500668],[28.055486270404355,40.75857914834001],[28.449481,40.805825],[28.501542,40.82216],[28.977708,40.971568],[28.995,41.027893],[28.97,41.017],[29.03,41.05],[29.065,41.09],[29.075,41.14],[29.065,41.155],[29.132431,41.242447],[32.8322,42.1344],[35.2956,42.2056],[36.391451,41.835171],[36.7369,41.7184],[38.4316,41.4112],[39.449118,41.423863],[39.7082,41.12],[39.723,41.005],[39.7082,41.12],[39.449118,41.423863],[38.843365,42.134316],[38.779766,42.208908],[37.827382,43.325905],[37.584252,43.611058],[37.016592,44.276835],[36.4,45],[36.8592,45.6212],[37.6629,46.8238],[39.0431,47.104],[39.267333,47.075668],[39.339564706293004,47.113297388571326],[39.421,47.112]]}},{"type":"Feature","properties":{"route_id":"muda_alexandria","waypoints":"venice|ragusa|corfu|modon|candia|alexandria","method":"searoute draft; hand-corrected against Natural Earth 1:10m land"},"geometry":{"type":"LineString","coordinates":[[12.335,45.437],[12.388379286434136,45.41321981316237],[12.446651,45.408832],[13.1,45.3],[13.391686,45.073133],[13.671293,44.855661],[13.725541,44.813468],[14,44.6],[14.188601,44.458549],[14.8,44],[15.038754,43.801038],[15.362021,43.531649],[15.940817,43.049319],[16.035233,43.00063],[16.054971,42.929323],[16.611248,42.763618],[17.84558,42.42964],[18.0047,42.6272],[18.111,42.64],[18.0047,42.6272],[18.047817,42.375008],[18.130095,41.893768],[18.158915,41.7252],[18.245282,41.220045],[18.3,40.9],[18.668146,40.590546],[18.782226,40.494652],[18.843188,40.459268],[19.011287,40.361696],[19.9547,39.8141],[19.9437,39.6324],[19.922,39.624],[19.9437,39.6324],[20.169,39.3866],[20.3557,39.1144],[20.4876,38.5495],[20.69081364951595,38.501429387755934],[20.80431364951595,38.37366272108927],[20.8281,38.1662],[20.98035,38.076305],[21.000731,37.867297],[21.5038,36.8502],[21.703,36.818],[21.5038,36.8502],[22.119,36.4492],[22.39158,36.372798],[22.838148,36.097336],[23.449324,36.076321],[23.9,35.95],[24.134472,35.868837],[24.980878,35.57585],[25.006952,35.538848],[25.124261,35.37237],[25.133,35.339],[25.124261,35.37237],[25.2,35.5],[26.3941,35.3719],[26.861926,34.791448],[26.932634,34.703717],[27.297549,34.25095],[27.568268,33.915057],[28.073668,33.287984],[28.212434,33.115811],[28.595708,32.640266],[29.265354,31.809405],[29.7545,31.2025],[29.892,31.2]]}},{"type":"Feature","properties":{"route_id":"muda_syria","waypoints":"venice|corfu|modon|candia|famagusta|beirut","method":"searoute draft; hand-corrected against Natural Earth 1:10m land"},"geometry":{"type":"LineString","coordinates":[[12.335,45.437],[12.388379286434136,45.41321981316237],[12.446651,45.408832],[13.1,45.3],[13.391686,45.073133],[13.671293,44.855661],[13.725541,44.813468],[14,44.6],[14.188601,44.458549],[14.8,44],[15.038754,43.801038],[15.362021,43.531649],[15.940817,43.049319],[16.035233,43.00063],[16.054971,42.929323],[16.735312,42.058803],[16.899521,41.867226],[17.21018,41.640741],[17.483052,41.441806],[17.809376,41.203902],[18.06518,41.01741],[18.264508,40.872091],[18.389003,40.781329],[18.644636,40.594961],[18.782226,40.494652],[18.843188,40.459268],[19.011287,40.361696],[19.9547,39.8141],[19.9437,39.6324],[19.922,39.624],[19.9437,39.6324],[20.169,39.3866],[20.3557,39.1144],[20.4876,38.5495],[20.69081364951595,38.501429387755934],[20.80431364951595,38.37366272108927],[20.8281,38.1662],[20.98035,38.076305],[21.000731,37.867297],[21.5038,36.8502],[21.703,36.818],[21.5038,36.8502],[22.119,36.4492],[22.39158,36.372798],[22.838148,36.097336],[23.449324,36.076321],[23.9,35.95],[24.134472,35.868837],[24.980878,35.57585],[25.006952,35.538848],[25.124261,35.37237],[25.133,35.339],[25.124261,35.37237],[25.2,35.5],[26.3941,35.3719],[27.491132,35.033771],[27.853162,34.922185],[28.702555,34.660384],[28.881234,34.656009],[29.1226,34.6501],[29.495846,34.622457],[30.7293,34.5314],[31.76258,34.519058],[32.881404,34.508296],[33.040031,34.50677],[33.457247,34.507581],[33.784931,34.508219],[33.840932,34.601554],[34.06334063364269,34.87505219115708],[34.2,35.2],[34.083651,35.254941],[33.958663,35.168124],[33.941,35.125],[33.958663,35.168124],[34.083651,35.254941],[34.2,35.2],[34.680902,34.719098],[34.889633,34.510367],[35.051596,34.348404],[35.2,34.2],[35.541089,33.940861],[35.478,33.895]]}},{"type":"Feature","properties":{"route_id":"muda_cyprus","waypoints":"venice|modon|candia|famagusta","method":"searoute draft; hand-corrected against Natural Earth 1:10m land"},"geometry":{"type":"LineString","coordinates":[[12.335,45.437],[12.388379286434136,45.41321981316237],[12.446651,45.408832],[13.1,45.3],[13.27605,45.082758],[13.500423,44.805888],[13.612219,44.667934],[13.882241,44.334734],[14.281073,43.956756],[14.522978,43.7275],[14.612892,43.647194],[14.66401,43.601537],[15.396206,42.947575],[15.50847,42.847306],[15.867555,42.526589],[16.759944,41.824743],[17.126307,41.536606],[17.3,41.4],[17.328372,41.376948],[17.553035,41.194409],[18.104545,40.746307],[18.184433,40.681398],[18.9,40.1],[19.090105,39.783159],[19.489188,39.118019],[19.8,38.6],[20.319182,37.971516],[20.393124,37.882008],[21.5038,36.8502],[21.703,36.818],[21.5038,36.8502],[22.119,36.4492],[22.39158,36.372798],[22.838148,36.097336],[23.449324,36.076321],[23.9,35.95],[24.134472,35.868837],[24.980878,35.57585],[25.006952,35.538848],[25.124261,35.37237],[25.133,35.339],[25.124261,35.37237],[25.2,35.5],[26.3941,35.3719],[27.491132,35.033771],[27.853162,34.922185],[28.702555,34.660384],[28.881234,34.656009],[29.1226,34.6501],[29.495846,34.622457],[30.7293,34.5314],[31.76258,34.519058],[32.881404,34.508296],[33.040031,34.50677],[33.457247,34.507581],[33.784931,34.508219],[33.840932,34.601554],[34.06334063364269,34.87505219115708],[34.2,35.2],[34.083651,35.254941],[33.958663,35.168124],[33.941,35.125]]}},{"type":"Feature","properties":{"route_id":"muda_dalmatia","waypoints":"venice|zara|sebenico|trau|spalato|ragusa|corfu","method":"searoute draft; hand-corrected against Natural Earth 1:10m land"},"geometry":{"type":"LineString","coordinates":[[12.335,45.437],[12.388379286434136,45.41321981316237],[12.446651,45.408832],[13.1,45.3],[13.391686,45.073133],[13.671293,44.855661],[13.725541,44.813468],[14,44.6],[14.188601,44.458549],[14.296433540585054,44.49134355529844],[14.396772,44.542681],[14.559383,44.385055],[15.231672,44.096422],[15.231,44.119],[15.231672,44.096422],[14.559383,44.385055],[14.64270730208232,44.26918514884149],[14.741411,44.166101],[14.866403,44.186119],[15.050858,44.104265],[15.230458,43.999605],[15.419767,43.86502],[15.550827,43.733639],[15.764406,43.640621],[15.778375780780827,43.68774954202595],[15.809927114114162,43.710569875359276],[15.85906,43.709082],[15.896,43.735],[15.85906,43.709082],[15.809927114114162,43.710569875359276],[15.778375780780827,43.68774954202595],[15.764406,43.640621],[15.882588408255828,43.53820894503891],[16.022885,43.469128],[16.154436796862772,43.465597783614186],[16.28549646352944,43.47205545028085],[16.416064,43.488501],[16.33517531152426,43.512114552272486],[16.251,43.516],[16.33517531152426,43.512114552272486],[16.416064,43.488501],[16.44,43.509],[16.416064,43.488501],[16.418491,43.342174],[16.37785897015727,43.31910846217903],[16.353595303490604,43.28455046217903],[16.3457,43.2385],[16.320196,43.084808],[16.839582,43.02806],[17.087139,42.97481],[17.13959534505002,42.97270078801068],[17.189754011716683,42.960859121344015],[17.237615,42.939285],[17.684189,42.772042],[18.0047,42.6272],[18.111,42.64],[18.0047,42.6272],[18.047817,42.375008],[18.130095,41.893768],[18.158915,41.7252],[18.245282,41.220045],[18.3,40.9],[18.668146,40.590546],[18.782226,40.494652],[18.843188,40.459268],[19.011287,40.361696],[19.9547,39.8141],[19.9437,39.6324],[19.922,39.624]]}},{"type":"Feature","properties":{"route_id":"private_adriatic","waypoints":"venice|pola|zara|pelagosa|ragusa|capo_d_otranto|corfu","method":"searoute draft; hand-corrected against Natural Earth 1:10m land"},"geometry":{"type":"LineString","coordinates":[[12.335,45.437],[12.388379286434136,45.41321981316237],[12.446651,45.408832],[13.1,45.3],[13.391686,45.073133],[13.6092,45.055027],[13.584657146172258,44.912644793304665],[13.642905812838924,44.85712779330466],[13.783946,44.888476],[13.848,44.869],[13.783946,44.888476],[13.725541,44.813468],[14,44.6],[14.188601,44.458549],[14.296433540585054,44.49134355529844],[14.396772,44.542681],[14.559383,44.385055],[15.231672,44.096422],[15.231,44.119],[15.231672,44.096422],[14.559383,44.385055],[14.64270730208232,44.26918514884149],[14.741411,44.166101],[14.929191,44.021834],[15.132163,43.865895],[15.162878,43.845879],[15.038754,43.801038],[15.362021,43.531649],[15.940817,43.049319],[15.704769,42.939026],[15.50847,42.847306],[15.867555,42.526589],[16.259,42.394],[15.867555,42.526589],[15.50847,42.847306],[15.704769,42.939026],[16.054971,42.929323],[16.611248,42.763618],[17.84558,42.42964],[18.0047,42.6272],[18.111,42.64],[18.0047,42.6272],[18.047817,42.375008],[18.130095,41.893768],[18.158915,41.7252],[18.245282,41.220045],[18.3,40.9],[18.389003,40.781329],[18.509783,40.62029],[18.9,40.1],[18.520626,39.762779],[18.517,40.116],[18.520626,39.762779],[18.823441,39.773616],[19.090105,39.783159],[19.219675,39.787796],[19.462895151114605,39.846532013812364],[19.707903484447936,39.85530001381236],[19.9547,39.8141],[19.9437,39.6324],[19.922,39.624]]}},{"type":"Feature","properties":{"route_id":"private_aegean","waypoints":"venice|modon|coron|negroponte|tino|naxos|candia","method":"searoute draft; hand-corrected against Natural Earth 1:10m land"},"geometry":{"type":"LineString","coordinates":[[12.335,45.437],[12.388379286434136,45.41321981316237],[12.446651,45.408832],[13.1,45.3],[13.27605,45.082758],[13.500423,44.805888],[13.612219,44.667934],[13.882241,44.334734],[14.281073,43.956756],[14.522978,43.7275],[14.612892,43.647194],[14.66401,43.601537],[15.396206,42.947575],[15.50847,42.847306],[15.867555,42.526589],[16.759944,41.824743],[17.126307,41.536606],[17.3,41.4],[17.328372,41.376948],[17.553035,41.194409],[18.104545,40.746307],[18.184433,40.681398],[18.9,40.1],[19.090105,39.783159],[19.489188,39.118019],[19.8,38.6],[20.319182,37.971516],[20.393124,37.882008],[21.5038,36.8502],[21.703,36.818],[21.5038,36.8502],[21.935461,36.486114],[21.955,36.795],[21.935461,36.486114],[22.119,36.4492],[22.39158,36.372798],[22.797527207631806,36.38536350280846],[23.200333874298472,36.427764169475125],[23.6,36.5],[23.681397584568344,36.72612701624019],[23.886715,36.851042],[23.999544,36.989186],[24.1095,37.123812],[24.236675,37.27952],[24.295629,37.351701],[24.339386,37.405274],[24.368196,37.488591],[24.376582,37.512828],[24.437988,37.690383],[24.45,37.8],[24.372282,37.856919],[24.237839,37.953719],[24.154683,38.032558],[24.13836,38.092597],[24.095199,38.194201],[23.978701,38.289511],[23.823371,38.350444],[23.655281,38.383248],[23.611679,38.438665],[23.58284,38.44764],[23.595371,38.477379],[23.594,38.464],[23.595371,38.477379],[23.58284,38.44764],[23.611679,38.438665],[23.655281,38.383248],[23.823371,38.350444],[23.978701,38.289511],[24.095199,38.194201],[24.13836,38.092597],[24.154683,38.032558],[24.237839,37.953719],[24.520041,37.90673],[24.537948,37.902017],[24.606498,37.883974],[24.728654,37.851823],[25.172635,37.483479],[25.162,37.539],[25.172635,37.483479],[25.17197,37.478766],[25.169278,37.459683],[25.145718,37.292713],[25.145718,37.292709],[25.525085,37.251137],[25.31357,37.123878],[25.376,37.107],[25.31357,37.123878],[25.257671,36.849342],[25.228623,36.706678],[25.328394,36.521984],[25.371818,36.441599],[25.342578,36.331809],[25.315313,36.131939],[25.2,35.5],[25.124261,35.37237],[25.133,35.339]]}}]}
